[{"OBJECT_NAME":"SHIJIAN-15 (SJ-15)","OBJECT_ID":"2013-037C","EPOCH":"2026-03-09T22:45:08.192736","MEAN_MOTION":14.71357626,"ECCENTRICITY":0.0007545,"INCLINATION":98.1055,"RA_OF_ASC_NODE":72.3692,"ARG_OF_PERICENTER":101.5082,"MEAN_ANOMALY":258.6973,"EPHEMERIS_TYPE":0,"CLASSIFICATION_TYPE":"U","NORAD_CAT_ID":39210,"ELEMENT_SET_NO":999,"REV_AT_EPOCH":67973,"BSTAR":0.00018012312,"MEAN_MOTION_DOT":1.064e-5,"MEAN_MOTION_DDOT":0},{"OBJECT_NAME":"KINEIS-5D","OBJECT_ID":"2024-219B","EPOCH":"2026-03-09T22:30:16.875648","MEAN_MOTION":14.72345174,"ECCENTRICITY":0.00012375,"INCLINATION":97.9569,"RA_OF_ASC_NODE":230.365,"ARG_OF_PERICENTER":120.2964,"MEAN_ANOMALY":239.8366,"EPHEMERIS_TYPE":0,"CLASSIFICATION_TYPE":"U","NORAD_CAT_ID":62082,"ELEMENT_SET_NO":999,"REV_AT_EPOCH":6915,"BSTAR":0.0002571671,"MEAN_MOTION_DOT":1.578e-5,"MEAN_MOTION_DDOT":0}]
